NOAA 15                 
1 25338U 98030A   22295.54633538  .00000138  00000+0  75992-4 0  9995
2 25338  98.6344 323.3638 0009318 288.8920  71.1250 14.26185659271130
NOAA 18                 
1 28654U 05018A   22295.54498878  .00000184  00000+0  12309-3 0  9992
2 28654  98.9377   5.8108 0013677 335.9413  24.1118 14.12794081898014
NOAA 19                 
1 33591U 09005A   22295.56076522  .00000166  00000+0  11455-3 0  9999
2 33591  99.1358 332.2980 0013831 187.3499 172.7471 14.12626031706134
METOP-B                 
1 38771U 12049A   22295.62558792  .00000094  00000+0  62920-4 0  9991
2 38771  98.7150 353.5451 0001415  68.7780  86.9232 14.21485002523794
SARAL                   
1 39086U 13009A   22295.55331332  .00000095  00000+0  51464-4 0  9991
2 39086  98.5479 119.3263 0000212 139.0678 221.0522 14.32038629504678
METOP-C                 
1 43689U 18087A   22295.56134641  .00000089  00000+0  60643-4 0  9993
2 43689  98.7196 353.4974 0003753  45.4599 314.6884 14.21478711205367
ANGELS                  
1 44876U 19092D   22295.53873887  .00003293  00000+0  16242-3 0  9993
2 44876  97.4757 117.4120 0010415 277.2633  82.7417 15.18583105157523
GAZELLE                 
1 54023U 22127A   22295.52751485 -.00000043  00000+0  00000+0 0  9991
2 54023  98.3163 294.5150 0012156 253.8190 106.1655 14.41644911  2130
